{"type": "FeatureCollection", "features": [{"type": "Feature", "geometry": {"type": "Polygon", "coordinates": [[[105.79779172417147, 21.215999442625442], [105.79781018318499, 21.216436204159375], [105.79740127097466, 21.216451222484082], [105.797382812043, 21.21601446099459], [105.79779172417147, 21.215999442625442]]]}, "properties": {"object_type": "plane", "confidence": 0.9199127554893494}}, {"type": "Feature", "geometry": {"type": "Polygon", "coordinates": [[[105.80196719321975, 21.216654624120945], [105.80206821348838, 21.217076444204352], [105.80168295109615, 21.2171566254059], [105.80158193082752, 21.216734805551656], [105.80196719321975, 21.216654624120945]]]}, "properties": {"object_type": "plane", "confidence": 0.9191896319389343}}, {"type": "Feature", "geometry": {"type": "Polygon", "coordinates": [[[105.80000762671261, 21.21628357169474], [105.8000982750309, 21.216876187574666], [105.79945339562983, 21.216961911153682], [105.79936274731153, 21.216369295617955], [105.80000762671261, 21.21628357169474]]]}, "properties": {"object_type": "plane", "confidence": 0.9185910224914551}}, {"type": "Feature", "geometry": {"type": "Polygon", "coordinates": [[[105.80154806466453, 21.216773811175795], [105.80166183393885, 21.217200286349552], [105.80127952420298, 21.217288916082694], [105.80116575492866, 21.216862441165045], [105.80154806466453, 21.216773811175795]]]}, "properties": {"object_type": "plane", "confidence": 0.9127799272537231}}, {"type": "Feature", "geometry": {"type": "Polygon", "coordinates": [[[105.79719252960103, 21.217660814654383], [105.79731273990546, 21.21809193045896], [105.79696558408841, 21.21817605061055], [105.79684537376352, 21.217744935051712], [105.79719252960103, 21.217660814654383]]]}, "properties": {"object_type": "plane", "confidence": 0.9049971103668213}}, {"type": "Feature", "geometry": {"type": "Polygon", "coordinates": [[[105.79728728026339, 21.216062957216174], [105.79734583426216, 21.21648934943868], [105.79696946624381, 21.216534265209155], [105.79691091222458, 21.216107873116407], [105.79728728026339, 21.216062957216174]]]}, "properties": {"object_type": "plane", "confidence": 0.9029600620269775}}, {"type": "Feature", "geometry": {"type": "Polygon", "coordinates": [[[105.79788799892412, 21.21749161287225], [105.7979360851823, 21.21790817585024], [105.79752842587823, 21.21794907049201], [105.79748033962005, 21.217532507629446], [105.79788799892412, 21.21749161287225]]]}, "properties": {"object_type": "plane", "confidence": 0.9007145762443542}}, {"type": "Feature", "geometry": {"type": "Polygon", "coordinates": [[[105.80247083722497, 21.215578957581204], [105.8026731776772, 21.21602202023574], [105.80232408679876, 21.216160566779056], [105.80212174634653, 21.215717504540414], [105.80247083722497, 21.215578957581204]]]}, "properties": {"object_type": "plane", "confidence": 0.49580779671669006}}, {"type": "Feature", "geometry": {"type": "Polygon", "coordinates": [[[105.80247311998392, 21.21544073952747], [105.80249745107722, 21.215742168726575], [105.80234213015501, 21.21575306411408], [105.80231779971655, 21.215451634937235], [105.80247311998392, 21.21544073952747]]]}, "properties": {"object_type": "plane", "confidence": 0.3562953770160675}}, {"type": "Feature", "geometry": {"type": "Polygon", "coordinates": [[[105.80482085275435, 21.21738520092682], [105.80493435027165, 21.217960299019627], [105.80428753091837, 21.218071231198255], [105.80417403307365, 21.217496133537736], [105.80482085275435, 21.21738520092682]]]}, "properties": {"object_type": "plane", "confidence": 0.9301376342773438}}, {"type": "Feature", "geometry": {"type": "Polygon", "coordinates": [[[105.80285580747841, 21.21545041952037], [105.80295264416236, 21.21611464670011], [105.80227214204115, 21.216200863356512], [105.8021753053572, 21.21553663656477], [105.80285580747841, 21.21545041952037]]]}, "properties": {"object_type": "plane", "confidence": 0.9130933880805969}}, {"type": "Feature", "geometry": {"type": "Polygon", "coordinates": [[[105.80725106770842, 21.21770390254516], [105.80733167247672, 21.218159993637823], [105.80692931624071, 21.218221787372745], [105.80684871179983, 21.21776569647105], [105.80725106770842, 21.21770390254516]]]}, "properties": {"object_type": "plane", "confidence": 0.9070236086845398}}, {"type": "Feature", "geometry": {"type": "Polygon", "coordinates": [[[105.80540586277493, 21.214692972960847], [105.80543105432298, 21.215061615027974], [105.80502531323873, 21.215085710988284], [105.80500012169068, 21.214717068981326], [105.80540586277493, 21.214692972960847]]]}, "properties": {"object_type": "plane", "confidence": 0.8988006711006165}}, {"type": "Feature", "geometry": {"type": "Polygon", "coordinates": [[[105.8019725687086, 21.216655974742675], [105.80206083006715, 21.217087547808987], [105.80176190344673, 21.217140674540296], [105.80167364208819, 21.216709101629334], [105.8019725687086, 21.216655974742675]]]}, "properties": {"object_type": "plane", "confidence": 0.8592991232872009}}, {"type": "Feature", "geometry": {"type": "Polygon", "coordinates": [[[105.80723318757009, 21.217697004045537], [105.80734223121908, 21.21814896275675], [105.80694780112026, 21.218231661457033], [105.8068387574508, 21.21777970299909], [105.80723318757009, 21.217697004045537]]]}, "properties": {"object_type": "plane", "confidence": 0.9111014008522034}}, {"type": "Feature", "geometry": {"type": "Polygon", "coordinates": [[[105.80982682884496, 21.21449162159579], [105.80987114095478, 21.214748166040053], [105.80959770690242, 21.214789211424886], [105.8095533947926, 21.21453266674674], [105.80982682884496, 21.21449162159579]]]}, "properties": {"object_type": "plane", "confidence": 0.8943801522254944}}, {"type": "Feature", "geometry": {"type": "Polygon", "coordinates": [[[105.80951251631632, 21.214588835399447], [105.80953385546309, 21.214851785515464], [105.8092664796277, 21.21487064256059], [105.80924514015351, 21.21460769247816], [105.80951251631632, 21.214588835399447]]]}, "properties": {"object_type": "plane", "confidence": 0.8801908493041992}}, {"type": "Feature", "geometry": {"type": "Polygon", "coordinates": [[[105.80538152153167, 21.2146897323031], [105.80543795727863, 21.21503477337989], [105.80505467576586, 21.21508925465291], [105.8049982400189, 21.214744213703483], [105.80538152153167, 21.2146897323031]]]}, "properties": {"object_type": "plane", "confidence": 0.8966399431228638}}, {"type": "Feature", "geometry": {"type": "Polygon", "coordinates": [[[105.80855917060035, 21.213268537675116], [105.80865554873526, 21.213908676693542], [105.80796269865459, 21.213999332693547], [105.80786632051968, 21.213359194068257], [105.80855917060035, 21.213268537675116]]]}, "properties": {"object_type": "plane", "confidence": 0.9303463101387024}}, {"type": "Feature", "geometry": {"type": "Polygon", "coordinates": [[[105.81107942471135, 21.213736453551387], [105.81120404789544, 21.21437425453942], [105.81056159269792, 21.214483349793742], [105.81043696951383, 21.213845549277103], [105.81107942471135, 21.213736453551387]]]}, "properties": {"object_type": "plane", "confidence": 0.9252836108207703}}, {"type": "Feature", "geometry": {"type": "Polygon", "coordinates": [[[105.8117729348669, 21.21269609087303], [105.81188873085921, 21.21312221597565], [105.81151867245353, 21.213209610440302], [105.81140287646122, 21.21278348558996], [105.8117729348669, 21.21269609087303]]]}, "properties": {"object_type": "plane", "confidence": 0.9186891913414001}}, {"type": "Feature", "geometry": {"type": "Polygon", "coordinates": [[[105.81121510480443, 21.213612621166963], [105.81131064016517, 21.2139971738728], [105.81095580866531, 21.214073783336392], [105.81086027330457, 21.213689230906443], [105.81121510480443, 21.213612621166963]]]}, "properties": {"object_type": "plane", "confidence": 0.9167925715446472}}, {"type": "Feature", "geometry": {"type": "Polygon", "coordinates": [[[105.81153864070075, 21.2135808573958], [105.81164235758479, 21.213972516033827], [105.8112964744214, 21.214052117762442], [105.81119275753736, 21.213660459335625], [105.81153864070075, 21.2135808573958]]]}, "properties": {"object_type": "plane", "confidence": 0.9140607714653015}}, {"type": "Feature", "geometry": {"type": "Polygon", "coordinates": [[[105.81145004038262, 21.213924745727557], [105.81151592738024, 21.214300233430595], [105.81115948170918, 21.21435458941074], [105.81109359471156, 21.21397910184598], [105.81145004038262, 21.213924745727557]]]}, "properties": {"object_type": "plane", "confidence": 0.9053548574447632}}, {"type": "Feature", "geometry": {"type": "Polygon", "coordinates": [[[105.81182491019717, 21.213412990904768], [105.81191836317885, 21.213786576030103], [105.81155623745872, 21.213865301845967], [105.81146278447704, 21.213491716919876], [105.81182491019717, 21.213412990904768]]]}, "properties": {"object_type": "plane", "confidence": 0.8989328742027283}}, {"type": "Feature", "geometry": {"type": "Polygon", "coordinates": [[[105.80982687763026, 21.21448964347825], [105.80986936536647, 21.214742649060433], [105.80959786046151, 21.214782272842168], [105.8095553727253, 21.21452926736606], [105.80982687763026, 21.21448964347825]]]}, "properties": {"object_type": "plane", "confidence": 0.8936489224433899}}, {"type": "Feature", "geometry": {"type": "Polygon", "coordinates": [[[105.80951440060744, 21.214593254703182], [105.80953471231624, 21.2148461356888], [105.80926774542604, 21.214864771062118], [105.80924743371725, 21.214611890108422], [105.80951440060744, 21.214593254703182]]]}, "properties": {"object_type": "plane", "confidence": 0.8836417198181152}}, {"type": "Feature", "geometry": {"type": "Polygon", "coordinates": [[[105.81211120654189, 21.213402175620534], [105.81229448471277, 21.214032268307836], [105.81182514724787, 21.214150912033485], [105.81164186842216, 21.213520819852626], [105.81211120654189, 21.213402175620534]]]}, "properties": {"object_type": "plane", "confidence": 0.7798324227333069}}]}